STARLINK-36957          
1 67989U 26039D   26077.58334491 -.01907587  00000+0 -21172-1 0  9990
2 67989  42.9999   0.7034 0001451 247.9188   1.9461 15.65186133  4304
STARLINK-36951          
1 67990U 26039E   26077.58334491 -.01901684  00000+0 -24738-1 0  9995
2 67990  42.9999   0.8548 0001308 263.6821 285.5216 15.61181233  4307
STARLINK-36941          
1 67991U 26039F   26077.58334491  .00051182  00000+0  87369-3 0  9993
2 67991  43.0002   1.5944 0001327 251.9022 357.9296 15.50542121  4304
STARLINK-36950          
1 67992U 26039G   26077.58334491 -.01871640  00000+0 -32310-1 0  9990
2 67992  42.9995   1.2275 0001862 257.1439 141.3624 15.53659326  4301
STARLINK-36975          
1 67993U 26039H   26077.58334491 -.01894092  00000+0 -31221-1 0  9997
2 67993  43.0001   1.1400 0001756 262.4682 171.1402 15.54952002  4305
STARLINK-36993          
1 67994U 26039J   26077.58334491 -.01917590  00000+0 -21117-1 0  9990
2 67994  43.0001   0.6413 0001635 252.4653  21.6690 15.65393709  4300
STARLINK-36968          
1 67995U 26039K   26077.58334491 -.00723152  00000+0 -13109-1 0  9991
2 67995  43.0001   1.3200 0001435 243.9141 116.6247 15.51018309  4306
STARLINK-36979          
1 67996U 26039L   26077.58334491 -.01942720  00000+0 -20081-1 0  9994
2 67996  43.0003   0.5773 0001699 253.8431  46.1602 15.66988960  4306
STARLINK-36994          
1 67997U 26039M   26077.58334491 -.01906516  00000+0 -24930-1 0  9995
2 67997  43.0003   0.7730 0001183 255.0118 326.1116 15.61058268  4301
STARLINK-36988          
1 67998U 26039N   26077.58334491 -.01898504  00000+0 -23827-1 0  9997
2 67998  43.0007   0.7395 0001337 254.6964 340.3730 15.62089137  4308
STARLINK-36926          
1 67999U 26039P   26077.58334491 -.01901834  00000+0 -24681-1 0  9998
2 67999  43.0003   0.7541 0001222 253.3944 335.3565 15.61243544  4308
STARLINK-36931          
1 68000U 26039Q   26077.58334491 -.01930431  00000+0 -21351-1 0  9998
2 68000  43.0003   0.5799 0001691 253.7268  44.7264 15.65307369  4305
